{"fetched_at":"2026-03-29T02:12:04Z","count":15717,"tles":[{"name":"LUDI TANCE-4 01A","line1":"1 57624U 23120A   26082.79837838 -.00000193  00000+0  00000+0 0  9995","line2":"2 57624  15.1599 196.0885 0004714 107.8800 254.1792  1.00275144  9691","category":"Other"}]}